NORAD_CAT_ID,OBJECT_NAME,OBJECT_TYPE,EPOCH,MEAN_MOTION,ECCENTRICITY,INCLINATION,RA_OF_ASC_NODE,ARG_OF_PERICENTER,MEAN_ANOMALY,BSTAR,MEAN_MOTION_DOT,MEAN_MOTION_DDOT,TLE_LINE0,TLE_LINE1,TLE_LINE2,SEMIMAJOR_AXIS,PERIOD,APOGEE,PERIGEE,DECAYED
56795.0,STARLINK-6061,PAYLOAD,2024-04-16 11:58:28,14.9833737,0.0002925,70.0005,269.5658,263.6951,96.3875,7.2533e-05,7.73e-06,0.0,0 STARLINK-6061,1 56795U 23078AE  24107.49893925  .00000773  00000-0  72533-4 0  9996,2 56795  70.0005 269.5658 0002925 263.6951  96.3875 14.98337370 49755,6950.17,96.107,574.068,570.002,0.0
56795.0,STARLINK-6061,PAYLOAD,2024-04-16 13:34:36,14.98336561,0.0003028,70.0002,269.3975,266.7495,93.3318,6.0214e-05,6.26e-06,0.0,0 STARLINK-6061,1 56795U 23078AE  24107.56569988  .00000626  00000-0  60214-4 0  9993,2 56795  70.0002 269.3975 0003028 266.7495  93.3318 14.98336561 49507,6950.173,96.107,574.142,569.933,0.0
56795.0,STARLINK-6061,PAYLOAD,2024-04-16 19:59:08,14.9833986,0.0003087,69.999,268.7227,269.7616,90.3189,6.9203e-05,7.33e-06,0.0,0 STARLINK-6061,1 56795U 23078AE  24107.83273638  .00000733  00000-0  69203-4 0  9993,2 56795  69.9990 268.7227 0003087 269.7616  90.3189 14.98339860 49548,6950.162,96.106,574.173,569.882,0.0
56795.0,STARLINK-6061,PAYLOAD,2024-04-17 12:00:29,14.98327931,0.0002697,69.9999,267.0396,265.784,94.3011,5.8599e-05,6.06e-06,0.0,0 STARLINK-6061,1 56795U 23078AE  24108.50034350  .00000606  00000-0  58599-4 0  9999,2 56795  69.9999 267.0396 0002697 265.7840  94.3011 14.98327931 49901,6950.199,96.107,573.939,570.19,0.0
56795.0,STARLINK-6061,PAYLOAD,2024-04-17 13:36:37,14.98325637,0.0002764,69.9996,266.8711,266.7333,93.351,3.5168e-05,3.27e-06,0.0,0 STARLINK-6061,1 56795U 23078AE  24108.56710565  .00000327  00000-0  35168-4 0  9991,2 56795  69.9996 266.8711 0002764 266.7333  93.3510 14.98325637 49655,6950.206,96.107,573.992,570.15,0.0
56795.0,STARLINK-6061,PAYLOAD,2024-04-17 20:01:10,14.98328175,0.0002782,69.9998,266.1977,266.2637,93.8204,4.4072e-05,4.33e-06,0.0,0 STARLINK-6061,1 56795U 23078AE  24108.83414395  .00000433  00000-0  44072-4 0  9995,2 56795  69.9998 266.1977 0002782 266.2637  93.8204 14.98328175 49695,6950.199,96.107,573.997,570.13,0.0
56795.0,STARLINK-6061,PAYLOAD,2024-04-18 12:02:30,14.98333833,0.0002956,69.9998,264.5158,262.0733,98.0091,-5.7137e-05,-7.75e-06,0.0,0 STARLINK-6061,1 56795U 23078AE  24109.50174154 -.00000775  00000-0 -57137-4 0  9993,2 56795  69.9998 264.5158 0002956 262.0733  98.0091 14.98333833 50052,6950.181,96.107,574.101,569.992,0.0
56795.0,STARLINK-6061,PAYLOAD,2024-04-18 20:03:07,14.98366497,0.0003522,69.9991,263.6727,264.4854,95.5903,0.00029827,3.471e-05,0.0,0 STARLINK-6061,1 56795U 23078AE  24109.83550804  .00003471  00000-0  29827-3 0  9997,2 56795  69.9991 263.6727 0003522 264.4854  95.5903 14.98366497 50109,6950.08,96.105,574.393,569.497,0.0
56795.0,STARLINK-6061,PAYLOAD,2024-04-19 12:04:29,14.9834709,0.0002524,70.0019,261.9955,254.1843,105.9038,0.00024518,2.835e-05,0.0,0 STARLINK-6061,1 56795U 23078AE  24110.50311482  .00002835  00000-0  24518-3 0  9995,2 56795  70.0019 261.9955 0002524 254.1843 105.9038 14.98347090 50206,6950.14,96.106,573.759,570.251,0.0
56795.0,STARLINK-6061,PAYLOAD,2024-04-19 13:40:37,14.98347833,0.0002941,70.002,261.8275,260.0032,100.0795,0.00021216,2.441e-05,0.0,0 STARLINK-6061,1 56795U 23078AE  24110.56987409  .00002441  00000-0  21216-3 0  9994,2 56795  70.0020 261.8275 0002941 260.0032 100.0795 14.98347833 49952,6950.138,96.106,574.047,569.959,0.0
56795.0,STARLINK-6061,PAYLOAD,2024-04-19 20:05:11,14.98322664,0.0002703,70.0006,261.1506,261.7041,98.3812,-9.9462e-05,-1.279e-05,0.0,0 STARLINK-6061,1 56795U 23078AE  24110.83693889 -.00001279  00000-0 -99462-4 0  9999,2 56795  70.0006 261.1506 0002703 261.7041  98.3812 14.98322664 50259,6950.216,96.107,573.959,570.202,0.0
56795.0,STARLINK-6061,PAYLOAD,2024-04-20 13:42:40,14.98327235,0.0002919,70.0002,259.2989,267.5025,92.58,-0.00011003,-1.405e-05,0.0,0 STARLINK-6061,1 56795U 23078AE  24111.57129753 -.00001405  00000-0 -11003-3 0  9990,2 56795  70.0002 259.2989 0002919 267.5025  92.5800 14.98327235 50109,6950.201,96.107,574.095,570.038,0.0
56795.0,STARLINK-6061,PAYLOAD,2024-04-20 20:07:11,14.98332022,0.0002796,70.0004,258.626,262.5169,97.5673,-3.8381e-05,-5.51e-06,0.0,0 STARLINK-6061,1 56795U 23078AE  24111.83833158 -.00000551  00000-0 -38381-4 0  9990,2 56795  70.0004 258.6260 0002796 262.5169  97.5673 14.98332022 50409,6950.187,96.107,573.995,570.108,0.0
56795.0,STARLINK-6061,PAYLOAD,2024-04-21 13:44:38,14.98348459,0.0002494,70.0002,256.7698,237.9584,122.1333,7.0861e-05,7.53e-06,0.0,0 STARLINK-6061,1 56795U 23078AE  24112.57266873  .00000753  00000-0  70861-4 0  9997,2 56795  70.0002 256.7698 0002494 237.9584 122.1333 14.98348459 50255,6950.136,96.106,573.734,570.267,0.0
56795.0,STARLINK-6061,PAYLOAD,2024-04-21 20:09:13,14.98323715,0.0002706,70.0001,256.0998,252.3446,107.7418,-0.0002837,-3.476e-05,0.0,0 STARLINK-6061,1 56795U 23078AE  24112.83973525 -.00003476  00000-0 -28370-3 0  9999,2 56795  70.0001 256.0998 0002706 252.3446 107.7418 14.98323715 50558,6950.212,96.107,573.958,570.197,0.0
56795.0,STARLINK-6061,PAYLOAD,2024-04-22 10:34:26,14.98316805,0.0002878,69.9997,254.5837,271.604,88.4789,-6.3939e-05,-8.56e-06,0.0,0 STARLINK-6061,1 56795U 23078AE  24113.44057985 -.00000856  00000-0 -63939-4 0  9990,2 56795  69.9997 254.5837 0002878 271.6040  88.4789 14.98316805 50387,6950.234,96.108,574.099,570.098,0.0
56795.0,STARLINK-6061,PAYLOAD,2024-04-22 18:35:06,14.98322502,0.0002289,70.0018,253.7447,241.8786,118.2142,3.0072e-05,2.66e-06,0.0,0 STARLINK-6061,1 56795U 23078AE  24113.77437540  .00000266  00000-0  30072-4 0  9990,2 56795  70.0018 253.7447 0002289 241.8786 118.2142 14.98322502 50694,6950.216,96.107,573.672,570.49,0.0
56795.0,STARLINK-6061,PAYLOAD,2024-04-23 13:48:42,14.98345533,0.0002276,70.0017,251.7249,246.4591,113.6329,-0.00049376,-5.981e-05,0.0,0 STARLINK-6061,1 56795U 23078AE  24114.57549671 -.00005981  00000-0 -49376-3 0  9995,2 56795  70.0017 251.7249 0002276 246.4591 113.6329 14.98345533 50552,6950.145,96.106,573.592,570.428,0.0
56795.0,STARLINK-6061,PAYLOAD,2024-04-23 18:37:07,14.98339797,0.0002339,70.0019,251.2196,248.4446,111.6464,-0.00044896,-5.447e-05,0.0,0 STARLINK-6061,1 56795U 23078AE  24114.77577813 -.00005447  00000-0 -44896-3 0  9995,2 56795  70.0019 251.2196 0002339 248.4446 111.6464 14.98339797 50846,6950.163,96.106,573.653,570.402,0.0
56795.0,STARLINK-6061,PAYLOAD,2024-04-24 12:14:36,14.98324307,0.0002589,70.0014,249.3685,249.4321,110.656,2.3858e-05,1.92e-06,0.0,0 STARLINK-6061,1 56795U 23078AE  24115.51014186  .00000192  00000-0  23858-4 0  9993,2 56795  70.0014 249.3685 0002589 249.4321 110.6560 14.98324307 50951,6950.21,96.107,573.875,570.276,0.0
56795.0,STARLINK-6061,PAYLOAD,2024-04-24 13:50:44,14.98333844,0.0002638,70.0014,249.2003,250.4643,109.6231,-0.00014276,-1.796e-05,0.0,0 STARLINK-6061,1 56795U 23078AE  24115.57690114 -.00001796  00000-0 -14276-3 0  9996,2 56795  70.0014 249.2003 0002638 250.4643 109.6231 14.98333844 50700,6950.181,96.107,573.879,570.213,0.0
56795.0,STARLINK-6061,PAYLOAD,2024-04-24 18:39:13,14.98268348,0.0002027,70.0017,248.6959,284.2852,75.8082,-0.00060095,-7.244e-05,0.0,0 STARLINK-6061,1 56795U 23078AE  24115.77723854 -.00007244  00000-0 -60095-3 0  9990,2 56795  70.0017 248.6959 0002027 284.2852  75.8082 14.98268348 50990,6950.384,96.111,573.657,570.84,0.0
56795.0,STARLINK-6061,PAYLOAD,2024-04-25 12:16:37,14.98331303,0.0002494,70.001,246.8423,253.9969,106.0915,0.00018919,2.165e-05,0.0,0 STARLINK-6061,1 56795U 23078AE  24116.51154902  .00002165  00000-0  18919-3 0  9998,2 56795  70.0010 246.8423 0002494 253.9969 106.0915 14.98331303 51107,6950.189,96.107,573.787,570.32,0.0
56795.0,STARLINK-6061,PAYLOAD,2024-04-25 13:52:45,14.98330345,0.0002496,70.0013,246.6745,251.8417,108.2471,0.00017944,2.049e-05,0.0,0 STARLINK-6061,1 56795U 23078AE  24116.57830993  .00002049  00000-0  17944-3 0  9993,2 56795  70.0013 246.6745 0002496 251.8417 108.2471 14.98330345 50859,6950.192,96.107,573.792,570.322,0.0
56795.0,STARLINK-6061,PAYLOAD,2024-04-25 18:41:09,14.98336393,0.0002493,70.0014,246.1695,256.7323,103.3558,0.00023928,2.764e-05,0.0,0 STARLINK-6061,1 56795U 23078AE  24116.77858465  .00002764  00000-0  23928-3 0  9992,2 56795  70.0014 246.1695 0002493 256.7323 103.3558 14.98336393 50880,6950.173,96.107,573.771,570.305,0.0
56795.0,STARLINK-6061,PAYLOAD,2024-04-26 12:18:37,14.98341698,0.0002363,70.0018,244.3179,255.5779,104.5118,0.00021894,2.521e-05,0.0,0 STARLINK-6061,1 56795U 23078AE  24117.51293887  .00002521  00000-0  21894-3 0  9997,2 56795  70.0018 244.3179 0002363 255.5779 104.5118 14.98341698 51250,6950.157,96.106,573.664,570.379,0.0
56795.0,STARLINK-6061,PAYLOAD,2024-04-26 13:54:45,14.98396081,0.0002074,70.0017,244.1509,236.848,123.248,-0.00069458,-8.384e-05,0.0,0 STARLINK-6061,1 56795U 23078AE  24117.57968975 -.00008384  00000-0 -69458-3 0  9993,2 56795  70.0017 244.1509 0002074 236.8480 123.2480 14.98396081 51003,6949.989,96.103,573.295,570.412,0.0
56795.0,STARLINK-6061,PAYLOAD,2024-04-26 15:30:52,14.98391778,0.0002078,70.0021,243.9842,230.9429,129.1546,-0.00052819,-6.399e-05,0.0,0 STARLINK-6061,1 56795U 23078AE  24117.64644519 -.00006399  00000-0 -52819-3 0  9993,2 56795  70.0021 243.9842 0002078 230.9429 129.1546 14.98391778 51272,6950.002,96.103,573.311,570.423,0.0
56795.0,STARLINK-6061,PAYLOAD,2024-04-26 18:43:08,14.98393396,0.0001879,70.0021,243.6457,240.0893,120.008,-0.00048083,-5.834e-05,0.0,0 STARLINK-6061,1 56795U 23078AE  24117.77995918 -.00005834  00000-0 -48083-3 0  9990,2 56795  70.0021 243.6457 0001879 240.0893 120.0080 14.98393396 51031,6949.997,96.103,573.168,570.556,0.0
56795.0,STARLINK-6061,PAYLOAD,2024-04-27 12:20:39,14.98342037,0.000222,70.0019,241.7931,269.9215,90.169,-0.00010041,-1.291e-05,0.0,0 STARLINK-6061,1 56795U 23078AE  24118.51434507 -.00001291  00000-0 -10041-3 0  9991,2 56795  70.0019 241.7931 0002220 269.9215  90.1690 14.98342037 51404,6950.156,96.106,573.564,570.478,0.0
